start=new Date('2021-09-18T00:00:00.000Z').valueOf();
sats=[{"CLASSIFICATION_TYPE":"U","MEAN_MOTION":"15.06395074","COUNTRY_CODE":"US","DECAY_DATE":null,"NORAD_CAT_ID":"48373","TLE_LINE1":"1 48373U 21038W   21260.89531006 -.00001004  00000-0 -48470-4 0  9996","OBJECT_TYPE":"PAYLOAD","APOAPSIS":"548.700","RCS_SIZE":"LARGE","PERIOD":"95.592","INCLINATION":"53.0567","MEAN_MOTION_DOT":"-0.00001004","BSTAR":"-0.00004847000000","FILE":"3118116","OBJECT_ID":"2021-038W","LAUNCH_DATE":"2021-05-04","REV_AT_EPOCH":"2091","MEAN_ELEMENT_THEORY":"SGP4","PERIAPSIS":"545.757","ELEMENT_SET_NO":"999","ECCENTRICITY":"0.00021250","MEAN_ANOMALY":"285.5373","MEAN_MOTION_DDOT":"0.0000000000000","EPHEMERIS_TYPE":"0","SEMIMAJOR_AXIS":"6925.364","ARG_OF_PERICENTER":"74.5851","OBJECT_NAME":"STARLINK-2609","EPOCH":"2021-09-17T21:29:14.789184","TIME_SYSTEM":"UTC","RA_OF_ASC_NODE":"125.9961","TLE_LINE2":"2 48373  53.0567 125.9961 0002125  74.5851 285.5373 15.06395074 20911","REF_FRAME":"TEME","SITE":"AFETR","GP_ID":"184913709","CENTER_NAME":"EARTH"},{"SEMIMAJOR_AXIS":"6925.361","MEAN_MOTION_DDOT":"0.0000000000000","EPHEMERIS_TYPE":"0","ELEMENT_SET_NO":"999","ECCENTRICITY":"0.00020490","MEAN_ANOMALY":"281.7719","REV_AT_EPOCH":"2091","MEAN_ELEMENT_THEORY":"SGP4","PERIAPSIS":"545.807","GP_ID":"184913514","CENTER_NAME":"EARTH","TLE_LINE2":"2 48374  53.0552 126.0088 0002049  78.3500 281.7719 15.06396081 20917","REF_FRAME":"TEME","SITE":"AFETR","OBJECT_NAME":"STARLINK-2604","EPOCH":"2021-09-17T21:23:56.869152","RA_OF_ASC_NODE":"126.0088","TIME_SYSTEM":"UTC","ARG_OF_PERICENTER":"78.3500","DECAY_DATE":null,"NORAD_CAT_ID":"48374","TLE_LINE1":"1 48374U 21038X   21260.89163043  .00000942  00000-0  82127-4 0  9994","OBJECT_TYPE":"PAYLOAD","COUNTRY_CODE":"US","CLASSIFICATION_TYPE":"U","MEAN_MOTION":"15.06396081","FILE":"3118116","BSTAR":"0.00008212700000","OBJECT_ID":"2021-038X","LAUNCH_DATE":"2021-05-04","MEAN_MOTION_DOT":"0.00000942","PERIOD":"95.592","RCS_SIZE":"LARGE","INCLINATION":"53.0552","APOAPSIS":"548.645"},{"APOAPSIS":"548.782","INCLINATION":"53.0559","PERIOD":"95.593","RCS_SIZE":"LARGE","MEAN_MOTION_DOT":"0.00000744","LAUNCH_DATE":"2021-05-04","FILE":"3118116","BSTAR":"0.00006889000000","OBJECT_ID":"2021-038Y","MEAN_MOTION":"15.06387024","CLASSIFICATION_TYPE":"U","COUNTRY_CODE":"US","TLE_LINE1":"1 48375U 21038Y   21260.88794959  .00000744  00000-0  68890-4 0  9991","OBJECT_TYPE":"PAYLOAD","DECAY_DATE":null,"NORAD_CAT_ID":"48375","ARG_OF_PERICENTER":"73.0811","TIME_SYSTEM":"UTC","RA_OF_ASC_NODE":"126.0296","OBJECT_NAME":"STARLINK-2603","EPOCH":"2021-09-17T21:18:38.844576","SITE":"AFETR","TLE_LINE2":"2 48375  53.0559 126.0296 0002208  73.0811 287.0419 15.06387024 20913","REF_FRAME":"TEME","GP_ID":"184913807","CENTER_NAME":"EARTH","MEAN_ELEMENT_THEORY":"SGP4","PERIAPSIS":"545.724","REV_AT_EPOCH":"2091","ECCENTRICITY":"0.00022080","MEAN_ANOMALY":"287.0419","ELEMENT_SET_NO":"999","EPHEMERIS_TYPE":"0","MEAN_MOTION_DDOT":"0.0000000000000","SEMIMAJOR_AXIS":"6925.388"},{"RA_OF_ASC_NODE":"126.0452","TIME_SYSTEM":"UTC","OBJECT_NAME":"STARLINK-2610","EPOCH":"2021-09-17T21:13:20.515872","ARG_OF_PERICENTER":"78.6623","GP_ID":"184913925","CENTER_NAME":"EARTH","SITE":"AFETR","TLE_LINE2":"2 48376  53.0565 126.0452 0001932  78.6623 281.4583 15.06390928 20917","REF_FRAME":"TEME","ECCENTRICITY":"0.00019320","MEAN_ANOMALY":"281.4583","ELEMENT_SET_NO":"999","MEAN_ELEMENT_THEORY":"SGP4","PERIAPSIS":"545.903","REV_AT_EPOCH":"2091","SEMIMAJOR_AXIS":"6925.376","EPHEMERIS_TYPE":"0","MEAN_MOTION_DDOT":"0.0000000000000","INCLINATION":"53.0565","RCS_SIZE":"LARGE","PERIOD":"95.593","APOAPSIS":"548.579","LAUNCH_DATE":"2021-05-04","BSTAR":"-0.00004892600000","FILE":"3118116","OBJECT_ID":"2021-038Z","MEAN_MOTION_DOT":"-0.00001010","COUNTRY_CODE":"US","MEAN_MOTION":"15.06390928","CLASSIFICATION_TYPE":"U","TLE_LINE1":"1 48376U 21038Z   21260.88426523 -.00001010  00000-0 -48926-4 0  9998","OBJECT_TYPE":"PAYLOAD","DECAY_DATE":null,"NORAD_CAT_ID":"48376"},{"EPHEMERIS_TYPE":"0","MEAN_MOTION_DDOT":"0.0000000000000","SEMIMAJOR_AXIS":"6925.380","REV_AT_EPOCH":"2083","MEAN_ELEMENT_THEORY":"SGP4","PERIAPSIS":"545.643","ELEMENT_SET_NO":"999","ECCENTRICITY":"0.00023130","MEAN_ANOMALY":"280.4578","TLE_LINE2":"2 48377  53.0551 128.4474 0002313  79.6671 280.4578 15.06389697 20836","REF_FRAME":"TEME","SITE":"AFETR","GP_ID":"184880893","CENTER_NAME":"EARTH","ARG_OF_PERICENTER":"79.6671","OBJECT_NAME":"STARLINK-2499","EPOCH":"2021-09-17T08:23:42.567936","RA_OF_ASC_NODE":"128.4474","TIME_SYSTEM":"UTC","DECAY_DATE":null,"NORAD_CAT_ID":"48377","TLE_LINE1":"1 48377U 21038AA  21260.34979824  .00001025  00000-0  87741-4 0  9999","OBJECT_TYPE":"PAYLOAD","CLASSIFICATION_TYPE":"U","MEAN_MOTION":"15.06389697","COUNTRY_CODE":"US","MEAN_MOTION_DOT":"0.00001025","FILE":"3117657","BSTAR":"0.00008774100000","OBJECT_ID":"2021-038AA","LAUNCH_DATE":"2021-05-04","APOAPSIS":"548.847","PERIOD":"95.593","RCS_SIZE":"LARGE","INCLINATION":"53.0551"},{"GP_ID":"184913828","CENTER_NAME":"EARTH","SITE":"AFETR","TLE_LINE2":"2 48378  53.0557 126.6814 0002011  81.6350 278.4867 15.06385202 20895","REF_FRAME":"TEME","TIME_SYSTEM":"UTC","RA_OF_ASC_NODE":"126.6814","OBJECT_NAME":"STARLINK-2526","EPOCH":"2021-09-17T17:51:38.249280","ARG_OF_PERICENTER":"81.6350","SEMIMAJOR_AXIS":"6925.394","MEAN_MOTION_DDOT":"0.0000000000000","EPHEMERIS_TYPE":"0","ECCENTRICITY":"0.00020110","MEAN_ANOMALY":"278.4867","ELEMENT_SET_NO":"999","MEAN_ELEMENT_THEORY":"SGP4","PERIAPSIS":"545.866","REV_AT_EPOCH":"2089","LAUNCH_DATE":"2021-05-04","OBJECT_ID":"2021-038AB","FILE":"3118116","BSTAR":"0.00008996000000","MEAN_MOTION_DOT":"0.00001058","INCLINATION":"53.0557","RCS_SIZE":"LARGE","PERIOD":"95.593","APOAPSIS":"548.652","TLE_LINE1":"1 48378U 21038AB  21260.74419270  .00001058  00000-0  89960-4 0  9999","OBJECT_TYPE":"PAYLOAD","DECAY_DATE":null,"NORAD_CAT_ID":"48378","COUNTRY_CODE":"US","MEAN_MOTION":"15.06385202","CLASSIFICATION_TYPE":"U"},{"TLE_LINE1":"1 48379U 21038AC  21260.60781280 -.00001557  00000-0 -85677-4 0  9995","OBJECT_TYPE":"PAYLOAD","DECAY_DATE":null,"NORAD_CAT_ID":"48379","MEAN_MOTION":"15.06391145","CLASSIFICATION_TYPE":"U","COUNTRY_CODE":"US","MEAN_MOTION_DOT":"-0.00001557","LAUNCH_DATE":"2021-05-04","FILE":"3118116","BSTAR":"-0.00008567700000","OBJECT_ID":"2021-038AC","APOAPSIS":"548.593","INCLINATION":"53.0558","PERIOD":"95.593","RCS_SIZE":"LARGE","MEAN_MOTION_DDOT":"0.0000000000000","EPHEMERIS_TYPE":"0","SEMIMAJOR_AXIS":"6925.376","MEAN_ELEMENT_THEORY":"SGP4","PERIAPSIS":"545.888","REV_AT_EPOCH":"2087","ECCENTRICITY":"0.00019530","MEAN_ANOMALY":"279.3419","ELEMENT_SET_NO":"999","SITE":"AFETR","TLE_LINE2":"2 48379  53.0558 127.2963 0001953  80.7791 279.3419 15.06391145 20876","REF_FRAME":"TEME","GP_ID":"184914119","CENTER_NAME":"EARTH","ARG_OF_PERICENTER":"80.7791","RA_OF_ASC_NODE":"127.2963","TIME_SYSTEM":"UTC","OBJECT_NAME":"STARLINK-2612","EPOCH":"2021-09-17T14:35:15.025920"},{"PERIAPSIS":"545.822","MEAN_ELEMENT_THEORY":"SGP4","REV_AT_EPOCH":"2091","ECCENTRICITY":"0.00020470","MEAN_ANOMALY":"278.0859","ELEMENT_SET_NO":"999","EPHEMERIS_TYPE":"0","MEAN_MOTION_DDOT":"0.0000000000000","SEMIMAJOR_AXIS":"6925.375","ARG_OF_PERICENTER":"82.0362","RA_OF_ASC_NODE":"125.9815","TIME_SYSTEM":"UTC","EPOCH":"2021-09-17T21:33:12.392640","OBJECT_NAME":"STARLINK-2614","SITE":"AFETR","REF_FRAME":"TEME","TLE_LINE2":"2 48380  53.0548 125.9815 0002047  82.0362 278.0859 15.06391358 20917","CENTER_NAME":"EARTH","GP_ID":"184913612","MEAN_MOTION":"15.06391358","CLASSIFICATION_TYPE":"U","COUNTRY_CODE":"US","OBJECT_TYPE":"PAYLOAD","TLE_LINE1":"1 48380U 21038AD  21260.89806010 -.00000955  00000-0 -45242-4 0  9992","NORAD_CAT_ID":"48380","DECAY_DATE":null,"APOAPSIS":"548.658","INCLINATION":"53.0548","RCS_SIZE":"LARGE","PERIOD":"95.593","MEAN_MOTION_DOT":"-0.00000955","LAUNCH_DATE":"2021-05-04","FILE":"3118116","OBJECT_ID":"2021-038AD","BSTAR":"-0.00004524200000"},{"COUNTRY_CODE":"US","MEAN_MOTION":"15.06395817","CLASSIFICATION_TYPE":"U","TLE_LINE1":"1 48381U 21038AE  21260.80316317 -.00000527  00000-0 -16435-4 0  9997","OBJECT_TYPE":"PAYLOAD","DECAY_DATE":null,"NORAD_CAT_ID":"48381","INCLINATION":"53.0574","PERIOD":"95.592","RCS_SIZE":"LARGE","APOAPSIS":"548.737","LAUNCH_DATE":"2021-05-04","FILE":"3118116","OBJECT_ID":"2021-038AE","BSTAR":"-0.00001643500000","MEAN_MOTION_DOT":"-0.00000527","ECCENTRICITY":"0.00021810","MEAN_ANOMALY":"272.5534","ELEMENT_SET_NO":"999","MEAN_ELEMENT_THEORY":"SGP4","PERIAPSIS":"545.716","REV_AT_EPOCH":"2090","SEMIMAJOR_AXIS":"6925.361","EPHEMERIS_TYPE":"0","MEAN_MOTION_DDOT":"0.0000000000000","RA_OF_ASC_NODE":"126.4015","TIME_SYSTEM":"UTC","OBJECT_NAME":"STARLINK-2630","EPOCH":"2021-09-17T19:16:33.297888","ARG_OF_PERICENTER":"87.5705","GP_ID":"184913710","CENTER_NAME":"EARTH","SITE":"AFETR","TLE_LINE2":"2 48381  53.0574 126.4015 0002181  87.5705 272.5534 15.06395817 20907","REF_FRAME":"TEME"},{"SITE":"AFETR","TLE_LINE2":"2 48382  53.0548 125.8325 0001991  80.4967 279.6247 15.06401542 20920","REF_FRAME":"TEME","GP_ID":"184913515","CENTER_NAME":"EARTH","ARG_OF_PERICENTER":"80.4967","RA_OF_ASC_NODE":"125.8325","TIME_SYSTEM":"UTC","OBJECT_NAME":"STARLINK-2585","EPOCH":"2021-09-17T22:22:19.227072","MEAN_MOTION_DDOT":"0.0000000000000","EPHEMERIS_TYPE":"0","SEMIMAJOR_AXIS":"6925.344","MEAN_ELEMENT_THEORY":"SGP4","PERIAPSIS":"545.830","REV_AT_EPOCH":"2092","MEAN_ANOMALY":"279.6247","ECCENTRICITY":"0.00019910","ELEMENT_SET_NO":"999","MEAN_MOTION_DOT":"0.00000902","LAUNCH_DATE":"2021-05-04","FILE":"3118116","BSTAR":"0.00007944800000","OBJECT_ID":"2021-038AF","APOAPSIS":"548.588","INCLINATION":"53.0548","PERIOD":"95.592","RCS_SIZE":"LARGE","TLE_LINE1":"1 48382U 21038AF  21260.93216698  .00000902  00000-0  79448-4 0  9991","OBJECT_TYPE":"PAYLOAD","DECAY_DATE":null,"NORAD_CAT_ID":"48382","MEAN_MOTION":"15.06401542","CLASSIFICATION_TYPE":"U","COUNTRY_CODE":"US"}];
